EUTELSAT 21B            
1 38992U 12062B   25318.19836384  .00000132  00000+0  00000+0 0  9997
2 38992   0.0712   7.3383 0003193 239.3402 259.8946  1.00272496 47674
EUTELSAT 70B            
1 39020U 12069A   25318.18181081 -.00000042  00000+0  00000+0 0  9994
2 39020   0.0651 347.9599 0004435 239.7295 321.8263  1.00270958 47353
EUTELSAT 117 WEST A     
1 39122U 13012A   25318.27058810 -.00000011  00000+0  00000+0 0  9995
2 39122   0.0478  80.8138 0003023 158.4987 154.9350  1.00271861 46278
EUTELSAT 7B             
1 39163U 13022A   25318.20392133  .00000050  00000+0  00000+0 0  9995
2 39163   0.0803  27.8079 0003470 281.3102 184.8607  1.00272986 45805
EXPRESS-AT1             
1 39612U 14010A   25317.97405966  .00000079  00000+0  00000+0 0  9995
2 39612   0.0132 261.0476 0000444 278.2073 280.7553  1.00274181 42668
EXPRESS-AT2             
1 39613U 14010B   25318.26688536  .00000000  00000+0  00000+0 0  9999
2 39613   0.0158 271.5506 0001525  28.7263 349.2695  1.00268568 42342
EUTELSAT 3B             
1 39773U 14030A   25318.20392133  .00000022  00000+0  00000+0 0  9991
2 39773   0.0662   4.6270 0004707 214.2036 271.2493  1.00271069 41919
EUTELSAT 115 WEST B     
1 40425U 15010B   25316.50408995 -.00000029  00000+0  00000+0 0  9999
2 40425   0.0114 134.6964 0000330 322.1287  21.6436  1.00272057 39229
